start=new Date('2021-09-12T00:00:00.000Z').valueOf();
sats=[{"PERIAPSIS":"546.588","TLE_LINE2":"2 48676  53.0535 272.8271 0001084  66.7317 333.2020 15.06359017  3605","MEAN_ELEMENT_THEORY":"SGP4","OBJECT_TYPE":"PAYLOAD","COUNTRY_CODE":"US","DECAY_DATE":null,"BSTAR":"0.00298290000000","EPHEMERIS_TYPE":"0","INCLINATION":"53.0535","RA_OF_ASC_NODE":"272.8271","RCS_SIZE":"LARGE","FILE":"3113379","TLE_LINE1":"1 48676U 21044AQ  21254.91667824  .00044380  00000-0  29829-2 0  9990","SEMIMAJOR_AXIS":"6925.474","ECCENTRICITY":"0.00010840","OBJECT_ID":"2021-044AQ","LAUNCH_DATE":"2021-05-26","MEAN_MOTION_DOT":"0.00044380","REF_FRAME":"TEME","SITE":"AFETR","APOAPSIS":"548.090","NORAD_CAT_ID":"48676","MEAN_MOTION":"15.06359017","EPOCH":"2021-09-11T22:00:00.999936","CENTER_NAME":"EARTH","ELEMENT_SET_NO":"999","PERIOD":"95.595","CLASSIFICATION_TYPE":"U","MEAN_ANOMALY":"333.2020","GP_ID":"184536611","MEAN_MOTION_DDOT":"0.0000000000000","TIME_SYSTEM":"UTC","REV_AT_EPOCH":"360","OBJECT_NAME":"STARLINK-2746","ARG_OF_PERICENTER":"66.7317"},{"RCS_SIZE":"LARGE","RA_OF_ASC_NODE":"272.8274","INCLINATION":"53.0532","EPHEMERIS_TYPE":"0","BSTAR":"0.00287660000000","DECAY_DATE":null,"COUNTRY_CODE":"US","OBJECT_TYPE":"PAYLOAD","MEAN_ELEMENT_THEORY":"SGP4","TLE_LINE2":"2 48677  53.0532 272.8274 0000827  69.2707 350.5880 15.06376334 17535","PERIAPSIS":"546.713","MEAN_MOTION_DOT":"0.00042799","OBJECT_ID":"2021-044AR","LAUNCH_DATE":"2021-05-26","TLE_LINE1":"1 48677U 21044AR  21254.91667824  .00042799  00000-0  28766-2 0  9992","SEMIMAJOR_AXIS":"6925.421","ECCENTRICITY":"0.00008270","FILE":"3113341","CENTER_NAME":"EARTH","EPOCH":"2021-09-11T22:00:00.999936","MEAN_MOTION":"15.06376334","NORAD_CAT_ID":"48677","APOAPSIS":"547.859","SITE":"AFETR","REF_FRAME":"TEME","ARG_OF_PERICENTER":"69.2707","OBJECT_NAME":"STARLINK-2719","REV_AT_EPOCH":"1753","MEAN_MOTION_DDOT":"0.0000000000000","GP_ID":"184512821","TIME_SYSTEM":"UTC","MEAN_ANOMALY":"350.5880","CLASSIFICATION_TYPE":"U","PERIOD":"95.594","ELEMENT_SET_NO":"999"},{"TIME_SYSTEM":"UTC","GP_ID":"184536518","MEAN_MOTION_DDOT":"0.0000000000000","MEAN_ANOMALY":"2.0934","REV_AT_EPOCH":"356","ARG_OF_PERICENTER":"77.8571","OBJECT_NAME":"STARLINK-2615","ELEMENT_SET_NO":"999","CLASSIFICATION_TYPE":"U","PERIOD":"95.593","CENTER_NAME":"EARTH","REF_FRAME":"TEME","APOAPSIS":"547.896","SITE":"AFETR","MEAN_MOTION":"15.06387174","EPOCH":"2021-09-11T22:00:00.999936","NORAD_CAT_ID":"48678","LAUNCH_DATE":"2021-05-26","OBJECT_ID":"2021-044AS","MEAN_MOTION_DOT":"0.00033426","FILE":"3113379","SEMIMAJOR_AXIS":"6925.388","TLE_LINE1":"1 48678U 21044AS  21254.91667824  .00033426  00000-0  22531-2 0  9994","ECCENTRICITY":"0.00009290","COUNTRY_CODE":"US","DECAY_DATE":null,"EPHEMERIS_TYPE":"0","INCLINATION":"53.0519","BSTAR":"0.00225310000000","RA_OF_ASC_NODE":"272.8288","RCS_SIZE":"LARGE","PERIAPSIS":"546.609","TLE_LINE2":"2 48678  53.0519 272.8288 0000929  77.8571   2.0934 15.06387174  3564","OBJECT_TYPE":"PAYLOAD","MEAN_ELEMENT_THEORY":"SGP4"},{"FILE":"3113379","TLE_LINE1":"1 48679U 21044AT  21254.91667824  .00039695  00000-0  26714-2 0  9996","SEMIMAJOR_AXIS":"6925.457","ECCENTRICITY":"0.00008350","LAUNCH_DATE":"2021-05-26","OBJECT_ID":"2021-044AT","MEAN_MOTION_DOT":"0.00039695","OBJECT_TYPE":"PAYLOAD","MEAN_ELEMENT_THEORY":"SGP4","TLE_LINE2":"2 48679  53.0523 272.8290 0000835  82.6659  17.2576 15.06364538  3592","PERIAPSIS":"546.744","RA_OF_ASC_NODE":"272.8290","RCS_SIZE":"LARGE","COUNTRY_CODE":"US","DECAY_DATE":null,"EPHEMERIS_TYPE":"0","INCLINATION":"53.0523","BSTAR":"0.00267140000000","CLASSIFICATION_TYPE":"U","PERIOD":"95.594","ELEMENT_SET_NO":"999","REV_AT_EPOCH":"359","ARG_OF_PERICENTER":"82.6659","OBJECT_NAME":"STARLINK-2648","MEAN_MOTION_DDOT":"0.0000000000000","GP_ID":"184536101","TIME_SYSTEM":"UTC","MEAN_ANOMALY":"17.2576","APOAPSIS":"547.901","SITE":"AFETR","EPOCH":"2021-09-11T22:00:00.999936","MEAN_MOTION":"15.06364538","NORAD_CAT_ID":"48679","REF_FRAME":"TEME","CENTER_NAME":"EARTH"},{"PERIOD":"95.593","CLASSIFICATION_TYPE":"U","ELEMENT_SET_NO":"999","OBJECT_NAME":"STARLINK-2649","ARG_OF_PERICENTER":"85.3569","REV_AT_EPOCH":"359","MEAN_ANOMALY":"34.5263","GP_ID":"184536288","MEAN_MOTION_DDOT":"0.0000000000000","TIME_SYSTEM":"UTC","NORAD_CAT_ID":"48680","EPOCH":"2021-09-11T22:00:00.999936","MEAN_MOTION":"15.06379064","APOAPSIS":"548.215","SITE":"AFETR","REF_FRAME":"TEME","CENTER_NAME":"EARTH","ECCENTRICITY":"0.00013530","TLE_LINE1":"1 48680U 21044AU  21254.91667824  .00038516  00000-0  25920-2 0  9997","SEMIMAJOR_AXIS":"6925.413","FILE":"3113379","MEAN_MOTION_DOT":"0.00038516","LAUNCH_DATE":"2021-05-26","OBJECT_ID":"2021-044AU","OBJECT_TYPE":"PAYLOAD","MEAN_ELEMENT_THEORY":"SGP4","PERIAPSIS":"546.341","TLE_LINE2":"2 48680  53.0537 272.8277 0001353  85.3569  34.5263 15.06379064  3595","RCS_SIZE":"LARGE","RA_OF_ASC_NODE":"272.8277","BSTAR":"0.00259200000000","EPHEMERIS_TYPE":"0","INCLINATION":"53.0537","DECAY_DATE":null,"COUNTRY_CODE":"US"},{"MEAN_ANOMALY":"105.4034","GP_ID":"184536008","TIME_SYSTEM":"UTC","MEAN_MOTION_DDOT":"0.0000000000000","REV_AT_EPOCH":"367","OBJECT_NAME":"STARLINK-2725","ARG_OF_PERICENTER":"45.4463","ELEMENT_SET_NO":"999","PERIOD":"92.403","CLASSIFICATION_TYPE":"U","CENTER_NAME":"EARTH","REF_FRAME":"TEME","SITE":"AFETR","APOAPSIS":"393.296","NORAD_CAT_ID":"48681","EPOCH":"2021-09-11T22:00:00.999936","MEAN_MOTION":"15.58388233","LAUNCH_DATE":"2021-05-26","OBJECT_ID":"2021-044AV","MEAN_MOTION_DOT":"-0.01010584","FILE":"3113379","TLE_LINE1":"1 48681U 21044AV  21254.91667824 -.01010584  00000-0 -14275-1 0  9996","ECCENTRICITY":"0.00014370","SEMIMAJOR_AXIS":"6770.458","DECAY_DATE":null,"COUNTRY_CODE":"US","BSTAR":"-0.01427500000000","INCLINATION":"53.0467","EPHEMERIS_TYPE":"0","RA_OF_ASC_NODE":"247.6224","RCS_SIZE":"LARGE","TLE_LINE2":"2 48681  53.0467 247.6224 0001437  45.4463 105.4034 15.58388233  3671","PERIAPSIS":"391.350","OBJECT_TYPE":"PAYLOAD","MEAN_ELEMENT_THEORY":"SGP4"},{"CLASSIFICATION_TYPE":"U","PERIOD":"91.533","ELEMENT_SET_NO":"999","ARG_OF_PERICENTER":"0.0828","OBJECT_NAME":"STARLINK-2743","REV_AT_EPOCH":"370","MEAN_MOTION_DDOT":"0.0000000000000","GP_ID":"184536195","TIME_SYSTEM":"UTC","MEAN_ANOMALY":"316.7598","EPOCH":"2021-09-11T22:00:00.999936","MEAN_MOTION":"15.73197366","NORAD_CAT_ID":"48682","SITE":"AFETR","APOAPSIS":"352.431","REF_FRAME":"TEME","CENTER_NAME":"EARTH","ECCENTRICITY":"0.00039590","TLE_LINE1":"1 48682U 21044AW  21254.91667824  .00085609  00000-0  60796-3 0  9995","SEMIMAJOR_AXIS":"6727.903","FILE":"3113379","MEAN_MOTION_DOT":"0.00085609","OBJECT_ID":"2021-044AW","LAUNCH_DATE":"2021-05-26","MEAN_ELEMENT_THEORY":"SGP4","OBJECT_TYPE":"PAYLOAD","PERIAPSIS":"347.104","TLE_LINE2":"2 48682  53.0460 247.2735 0003959   0.0828 316.7598 15.73197366  3709","RCS_SIZE":"LARGE","RA_OF_ASC_NODE":"247.2735","EPHEMERIS_TYPE":"0","INCLINATION":"53.0460","BSTAR":"0.00060796000000","DECAY_DATE":null,"COUNTRY_CODE":"US"},{"APOAPSIS":"352.375","SITE":"AFETR","NORAD_CAT_ID":"48683","EPOCH":"2021-09-11T22:00:00.999936","MEAN_MOTION":"15.73208084","REF_FRAME":"TEME","CENTER_NAME":"EARTH","PERIOD":"91.533","CLASSIFICATION_TYPE":"U","ELEMENT_SET_NO":"999","REV_AT_EPOCH":"370","OBJECT_NAME":"STARLINK-2756","ARG_OF_PERICENTER":"8.4080","MEAN_ANOMALY":"309.0588","GP_ID":"184536425","TIME_SYSTEM":"UTC","MEAN_MOTION_DDOT":"0.0000000000000","OBJECT_TYPE":"PAYLOAD","MEAN_ELEMENT_THEORY":"SGP4","TLE_LINE2":"2 48683  53.0461 247.2728 0003921   8.4080 309.0588 15.73208084  3708","PERIAPSIS":"347.099","RA_OF_ASC_NODE":"247.2728","RCS_SIZE":"LARGE","DECAY_DATE":null,"COUNTRY_CODE":"US","BSTAR":"0.00060347000000","INCLINATION":"53.0461","EPHEMERIS_TYPE":"0","FILE":"3113379","TLE_LINE1":"1 48683U 21044AX  21254.91667824  .00085004  00000-0  60347-3 0  9997","ECCENTRICITY":"0.00039210","SEMIMAJOR_AXIS":"6727.872","LAUNCH_DATE":"2021-05-26","OBJECT_ID":"2021-044AX","MEAN_MOTION_DOT":"0.00085004"},{"PERIAPSIS":"452.949","TLE_LINE2":"2 48684  53.0445 249.2900 0001460  43.7305   4.8853 15.37351468  3703","OBJECT_TYPE":"PAYLOAD","MEAN_ELEMENT_THEORY":"SGP4","EPHEMERIS_TYPE":"0","INCLINATION":"53.0445","BSTAR":"-0.03174600000000","DECAY_DATE":null,"COUNTRY_CODE":"US","RCS_SIZE":"LARGE","RA_OF_ASC_NODE":"249.2900","TLE_LINE1":"1 48684U 21044AY  21254.91667824 -.01081794  00000-0 -31746-1 0  9992","ECCENTRICITY":"0.00014600","SEMIMAJOR_AXIS":"6832.082","FILE":"3113379","MEAN_MOTION_DOT":"-0.01081794","OBJECT_ID":"2021-044AY","LAUNCH_DATE":"2021-05-26","REF_FRAME":"TEME","MEAN_MOTION":"15.37351468","EPOCH":"2021-09-11T22:00:00.999936","NORAD_CAT_ID":"48684","APOAPSIS":"454.944","SITE":"AFETR","CENTER_NAME":"EARTH","ELEMENT_SET_NO":"999","CLASSIFICATION_TYPE":"U","PERIOD":"93.668","GP_ID":"184536612","TIME_SYSTEM":"UTC","MEAN_MOTION_DDOT":"0.0000000000000","MEAN_ANOMALY":"4.8853","ARG_OF_PERICENTER":"43.7305","OBJECT_NAME":"STARLINK-2741","REV_AT_EPOCH":"370"},{"CENTER_NAME":"EARTH","EPOCH":"2021-09-11T22:00:00.999936","MEAN_MOTION":"15.73182482","NORAD_CAT_ID":"48685","SITE":"AFETR","APOAPSIS":"352.618","REF_FRAME":"TEME","ARG_OF_PERICENTER":"2.8648","OBJECT_NAME":"STARLINK-2751","REV_AT_EPOCH":"370","TIME_SYSTEM":"UTC","GP_ID":"184536331","MEAN_MOTION_DDOT":"0.0000000000000","MEAN_ANOMALY":"315.8975","CLASSIFICATION_TYPE":"U","PERIOD":"91.534","ELEMENT_SET_NO":"999","RCS_SIZE":"LARGE","RA_OF_ASC_NODE":"247.2732","INCLINATION":"53.0463","EPHEMERIS_TYPE":"0","BSTAR":"0.00062365000000","COUNTRY_CODE":"US","DECAY_DATE":null,"MEAN_ELEMENT_THEORY":"SGP4","OBJECT_TYPE":"PAYLOAD","PERIAPSIS":"347.002","TLE_LINE2":"2 48685  53.0463 247.2732 0004174   2.8648 315.8975 15.73182482  3704","MEAN_MOTION_DOT":"0.00087805","OBJECT_ID":"2021-044AZ","LAUNCH_DATE":"2021-05-26","TLE_LINE1":"1 48685U 21044AZ  21254.91667824  .00087805  00000-0  62365-3 0  9992","SEMIMAJOR_AXIS":"6727.945","ECCENTRICITY":"0.00041740","FILE":"3113379"}];
